[{"OBJECT_NAME":"STARLINK-2461","OBJECT_ID":"2021-040A","EPOCH":"2026-03-09T12:33:55.047456","MEAN_MOTION":15.30208541,"ECCENTRICITY":0.00014228,"INCLINATION":53.1634,"RA_OF_ASC_NODE":179.5041,"ARG_OF_PERICENTER":95.7277,"MEAN_ANOMALY":264.3886,"EPHEMERIS_TYPE":0,"CLASSIFICATION_TYPE":"U","NORAD_CAT_ID":48428,"ELEMENT_SET_NO":999,"REV_AT_EPOCH":26665,"BSTAR":3.780316e-6,"MEAN_MOTION_DOT":-2.47e-6,"MEAN_MOTION_DDOT":0},{"OBJECT_NAME":"OBJECT H","OBJECT_ID":"2025-055H","EPOCH":"2026-03-09T23:29:50.051328","MEAN_MOTION":15.30330066,"ECCENTRICITY":0.00075967,"INCLINATION":97.636,"RA_OF_ASC_NODE":211.9572,"ARG_OF_PERICENTER":140.4354,"MEAN_ANOMALY":219.7441,"EPHEMERIS_TYPE":0,"CLASSIFICATION_TYPE":"U","NORAD_CAT_ID":63298,"ELEMENT_SET_NO":999,"REV_AT_EPOCH":5423,"BSTAR":0.0015582864,"MEAN_MOTION_DOT":0.00045901,"MEAN_MOTION_DDOT":0}]
